name,phone,email,address,country,region,postalZip
Thane Anthony,1-432-453-2212,enim@outlook.com,"P.O. Box 807, 8416 Orci Street",Norway,Andalucía,42667-144
Zachary Mcintyre,(685) 152-0348,augue@google.net,746-2794 Nulla Rd.,Belgium,Jeju,42822
Marah Compton,1-230-847-4580,mauris.nulla.integer@protonmail.com,275-8652 Eros Ave,Ireland,Liguria,T7L 4S5
Lucas Noel,1-754-588-3651,mollis@hotmail.net,8727 Nascetur St.,China,North Region,81705
Travis Hendrix,(774) 658-1511,quisque.ornare.tortor@protonmail.ca,176-6606 Augue St.,Canada,Hatay,22313
Hayley Cooper,(754) 428-4047,pretium.aliquet@google.edu,6934 Eu Avenue,Norway,Ogun,538702
Ria Schmidt,(261) 775-4282,nunc@outlook.net,2738 Molestie St.,Singapore,Puebla,206772
Justin Herman,1-315-391-4783,dapibus@yahoo.couk,"P.O. Box 161, 8254 Gravida Road",France,West-Vlaanderen,1142
Thaddeus Foley,1-679-123-6529,aliquet.libero@google.net,"P.O. Box 731, 2887 Risus. St.",Peru,Ancash,415741
Vivian Ortega,(652) 873-2105,ac.metus@yahoo.edu,"P.O. Box 952, 9769 Sem Avenue",Peru,Loreto,51165-328
Kelsey Powell,(868) 563-6324,ligula.eu@google.ca,4928 Neque. Street,Colombia,Troms og Finnmark,5660
Jerry Madden,1-893-632-0275,dui.quis@yahoo.ca,Ap #472-7828 Gravida Rd.,Mexico,Nagaland,6675
Eric Langley,1-713-988-1493,ipsum.primis@yahoo.com,"P.O. Box 362, 6868 Velit Av.",Netherlands,Schleswig-Holstein,56667
Farrah Buckley,1-213-575-2756,lorem.lorem@protonmail.net,648-6045 Congue. Rd.,Chile,Valle d'Aosta,90437
Derek Craig,(455) 320-8249,odio.auctor@google.couk,1414 Nunc St.,India,Ivano-Frankivsk oblast,L5G 3J4
Talon Franklin,1-825-385-2383,enim@yahoo.couk,"P.O. Box 932, 806 Montes, Rd.",Sweden,Munster,124648
Tate Swanson,1-363-540-1588,parturient.montes@google.edu,911-2376 Et Road,Indonesia,Limpopo,89835-096
Alea Barrera,(850) 327-5132,vitae.odio@hotmail.com,919-9788 Lobortis Rd.,Poland,Meghalaya,34095
Lucius Mercer,(245) 713-1641,tellus@protonmail.couk,1036 Quisque St.,Russian Federation,Jönköpings län,39-758
Abel Rollins,(755) 524-5869,donec.est@protonmail.ca,732-3471 Convallis Street,Turkey,Puglia,21246
Remedios Mcfarland,1-514-543-6665,enim@outlook.edu,2628 Ultrices St.,Nigeria,Rogaland,312226
Jena Jennings,(524) 773-6221,phasellus.libero@yahoo.ca,"P.O. Box 370, 7333 Est Rd.",Chile,North Gyeongsang,148463
Whitney Walsh,(585) 375-7181,libero.lacus.varius@protonmail.ca,Ap #635-5275 Fermentum Street,Vietnam,Free State,27946
Theodore Wade,(876) 813-8439,at@google.ca,"P.O. Box 828, 1374 Vulputate Rd.",Sweden,Leinster,52455
Cole Burris,(721) 953-1926,morbi.vehicula@hotmail.net,800-9699 Sociis Ave,Ireland,Wielkopolskie,12743
Tana Chaney,(642) 784-0258,a.ultricies@aol.org,Ap #323-3914 Sagittis Avenue,Austria,North-East Region,3823
Mari Marsh,1-953-329-6832,dui@google.couk,966-2460 Nunc St.,Spain,South Australia,7361
Mikayla Valencia,(744) 458-0616,integer.vitae@hotmail.edu,134-1789 Ipsum Rd.,Belgium,Basilicata,34338
Benedict Mercer,1-252-126-8403,justo.proin@aol.org,"P.O. Box 927, 380 Purus, Rd.",Chile,Noord Brabant,857378
Derek Langley,(268) 614-8131,semper.egestas@icloud.org,"P.O. Box 513, 4612 Erat, Road",Sweden,East Java,5152
Kylee Dennis,1-911-678-7252,lacinia.at.iaculis@protonmail.com,"123-5441 At, Av.",Canada,Overijssel,96211
Baxter Dunn,1-880-459-6675,sed.pede.cum@outlook.net,1131 Est. St.,Austria,Free State,382487
Zahir Mcintosh,1-545-814-7822,pretium@hotmail.net,7966 Ut St.,Canada,Ninh Bình,361483
Kaitlin Massey,1-290-240-2752,convallis.est.vitae@protonmail.couk,"762-6857 Montes, Road",Italy,Borno,A7M 7Z7
Ifeoma Case,(664) 890-7812,orci.quis@outlook.com,Ap #989-5401 Ultrices St.,Sweden,Fife,58-933
Griffin Buckley,(601) 848-6764,quis.massa.mauris@hotmail.org,"P.O. Box 356, 831 Adipiscing St.",Peru,Waals-Brabant,517215
Kylynn Cantrell,(858) 162-4146,donec@outlook.ca,485-9728 Blandit Road,Costa Rica,Dnipropetrovsk oblast,31341
Jenette Norton,1-384-886-3381,ac.libero.nec@outlook.net,569-5590 Posuere Ave,Italy,Northwest Territories,258831
Thaddeus Newton,1-216-578-8188,quis@outlook.com,Ap #283-6700 Egestas Ave,Germany,Ontario,24520
Britanney Pollard,(112) 676-2303,curabitur.massa.vestibulum@aol.com,Ap #228-5616 Ligula. Avenue,Peru,Puno,19217
Selma Perez,1-489-379-5873,risus.donec@hotmail.com,"P.O. Box 757, 2642 Magna St.",Canada,North Island,297338
Rhonda Ferrell,(341) 714-3100,sit@aol.org,"P.O. Box 161, 6114 Dolor. St.",Nigeria,Östergötlands län,E21 2HK
Xenos Lopez,1-685-388-4161,quam.vel@hotmail.org,"620-8069 A, Ave",Italy,Viken,4467
Helen Day,(224) 545-1352,aliquam.erat@yahoo.net,2244 Ultrices St.,Belgium,Nova Scotia,654779
Sean Mendez,1-847-396-3730,diam@google.net,Ap #142-351 Porttitor St.,Belgium,Kano,84065-90931
Alfreda Schmidt,(932) 105-1887,integer@protonmail.edu,Ap #928-8389 Fusce Rd.,Turkey,Australian Capital Territory,5240
Karleigh Mercer,1-733-750-3078,semper.auctor@yahoo.edu,Ap #514-5107 Duis Ave,Austria,Khyber Pakhtoonkhwa,176037
Wang Irwin,(451) 722-0274,augue.sed@yahoo.edu,"P.O. Box 753, 8538 Phasellus Avenue",Peru,Sachsen-Anhalt,42658-640
Claire Hawkins,1-672-951-9654,lobortis.nisi@outlook.org,Ap #841-1389 Odio. St.,United Kingdom,Cornwall,3003
Vielka Silva,1-719-884-8763,lorem.fringilla@icloud.couk,Ap #883-4882 A Rd.,Chile,Rivne oblast,867774
Imani Gonzalez,(689) 662-3732,libero.nec@google.net,Ap #536-8316 Ut Rd.,Turkey,South Island,14896
Hedy Ingram,1-844-314-5556,a.sollicitudin@protonmail.edu,577-4577 Nunc Avenue,United States,Vestfold og Telemark,PM01 8WC
Sybill Long,1-320-345-1684,lorem.auctor@google.net,"P.O. Box 138, 5361 Magna. Rd.",Philippines,Sindh,29552
Kasimir Rodriquez,(254) 751-8730,neque.sed@aol.edu,140-113 Blandit Ave,Germany,Jambi,318411
Zelda Stokes,1-587-886-2685,ipsum.suspendisse@protonmail.com,547-3418 Sagittis. Avenue,South Korea,Wielkopolskie,44985-55786
Sopoline Greene,(496) 767-6977,ac.tellus.suspendisse@icloud.com,596-5565 Tempor St.,Costa Rica,South Jeolla,38684
Walker Richard,1-655-221-8825,tincidunt.adipiscing@aol.couk,Ap #612-9710 Tempus Road,Peru,Arkansas,88183-858
Flavia Kent,1-542-257-7483,a.purus.duis@aol.com,"P.O. Box 703, 1440 Purus Road",Mexico,Brandenburg,59-46
Channing Kidd,1-847-324-7858,velit.dui@google.couk,555-2698 Magna. Av.,Costa Rica,Schleswig-Holstein,479106
Wing Mcdaniel,1-756-773-9353,neque.sed@protonmail.edu,"P.O. Box 786, 6178 Non, Rd.",Mexico,Borno,88165
Callum Wright,1-770-827-9582,iaculis@protonmail.com,372-7043 Venenatis Street,Mexico,Lampung,36160
Zeph Short,1-784-223-5188,orci.ut@outlook.net,6629 Sem St.,Ireland,Kaduna,717387
Olivia Hammond,(162) 296-6447,vivamus.non@google.com,"Ap #320-5657 Luctus, Street",Italy,KwaZulu-Natal,5240
Blaze Ruiz,1-454-296-2866,nibh.enim.gravida@icloud.edu,"P.O. Box 463, 4032 Ut Rd.",Singapore,Gloucestershire,55538
Harper Potter,1-814-826-0918,ultricies.dignissim@aol.net,2156 In Avenue,Netherlands,Ulster,27627
Stone Ramsey,(271) 537-6446,luctus.et.ultrices@yahoo.net,"P.O. Box 991, 405 Eu Avenue",Turkey,Cundinamarca,16162
Wyatt Sharpe,1-587-152-2407,sed.hendrerit.a@aol.edu,6276 Nullam St.,Australia,North Island,19744
Jin Whitfield,(778) 679-4811,natoque.penatibus.et@outlook.couk,Ap #655-3203 Ipsum Avenue,South Africa,Friuli-Venezia Giulia,5911
Aiko Allen,(209) 263-2385,malesuada.fringilla@protonmail.net,Ap #851-3944 Orci Street,Indonesia,Leinster,721884
Ina Valenzuela,1-656-278-6611,lectus@outlook.com,"P.O. Box 580, 9318 Aenean St.",Singapore,Bến Tre,135749
Lani Charles,1-487-471-4542,eget.odio@aol.com,Ap #616-7841 Amet Street,Brazil,Sonora,89684
Dalton Bates,(824) 741-7746,lacus.vestibulum@icloud.ca,Ap #130-386 Magna Avenue,Russian Federation,Emilia-Romagna,5189
Leroy Mckinney,(919) 736-5596,aenean@icloud.com,Ap #147-2161 Tempus St.,Australia,Washington,16693-20328
Nola Harper,(388) 352-3857,sagittis.augue@icloud.com,3720 Purus Ave,Costa Rica,Västra Götalands län,658515
Sydney Collier,1-504-216-2128,ipsum@protonmail.edu,"P.O. Box 258, 4201 Elementum, Road",South Korea,Lagos,2827
Sopoline Perez,(452) 421-1827,lorem.fringilla.ornare@protonmail.couk,Ap #786-1752 Aliquam St.,Indonesia,Västra Götalands län,73585
Hakeem Colon,(558) 244-4736,mauris.non@google.ca,8042 Dolor Av.,Germany,South Island,27773
Marvin Acosta,(190) 517-6429,auctor.nunc@aol.net,Ap #779-8356 Feugiat. St.,Netherlands,Sachsen-Anhalt,669360
Quinlan Hill,(825) 205-9569,neque.nullam.ut@outlook.ca,8135 Lorem Avenue,Norway,Devon,21420
Britanni Rodriguez,1-431-738-7356,arcu.aliquam@google.org,135-5036 Semper St.,Netherlands,Pará,0266 SU
Yeo Roberson,1-701-215-3953,eros@icloud.org,1919 Metus. Rd.,Canada,Konya,34-764
Magee Barber,1-562-207-5218,aliquet.vel@yahoo.edu,7722 Ac Av.,Chile,Munster,547643
Magee Quinn,1-572-528-0809,non.massa@protonmail.net,Ap #628-6238 Enim. Avenue,Vietnam,North Gyeongsang,5181-7741
Beatrice Barrett,(350) 532-3962,cras@yahoo.couk,Ap #461-8076 Vehicula. Rd.,South Korea,Trøndelag,11207
Troy Kirby,1-586-746-6092,molestie.sed@google.edu,Ap #386-6272 Mollis Ave,China,Podkarpackie,66567
Nell Watkins,(661) 785-5614,lectus.convallis@google.net,"P.O. Box 284, 1476 A Av.",Poland,Bihar,2767
Jaime Whitaker,(815) 481-5767,nullam.nisl@yahoo.net,2310 Eros Street,Indonesia,Cherkasy oblast,6867
Rhea Henry,(264) 928-9796,dignissim.lacus@icloud.net,9243 Nec St.,Colombia,Tambov Oblast,48174
Boris Hanson,1-763-712-7656,tellus.sem@icloud.net,945-6055 Mattis. Street,South Korea,KwaZulu-Natal,67477
Donovan Snyder,1-584-125-6043,lectus.pede@hotmail.couk,203-4227 Fringilla Av.,South Korea,North Region,16-325
Rhoda Kirby,1-973-468-8644,vestibulum@google.couk,215-1316 Phasellus St.,United States,Tiền Giang,51522
Brianna Davenport,(384) 311-7124,fringilla.donec@aol.edu,Ap #971-1009 Convallis Ave,Brazil,Lviv oblast,177196
Rylee Spencer,(824) 397-2948,lacus.nulla.tincidunt@hotmail.edu,"P.O. Box 411, 3610 Ipsum St.",Singapore,Kirovohrad oblast,38788
Clinton Sherman,(393) 208-5927,vivamus.sit@outlook.net,129-6633 Orci Road,Mexico,Castilla - La Mancha,A4N 1B8
Judah Browning,(648) 703-5321,nulla.donec@aol.net,Ap #900-7973 Dictum Ave,South Africa,Zhōngnán,7351-2363
Kylynn Mcdonald,1-307-654-5468,turpis.egestas@yahoo.net,"P.O. Box 769, 9685 Morbi St.",Belgium,Podlaskie,3389
Ivory Wolfe,(778) 921-5376,habitant.morbi@aol.couk,774-8074 Id Avenue,Brazil,Castilla y León,12639
Laura Clay,1-628-441-7698,eget.massa@google.org,444-3064 Curabitur Road,Netherlands,Rio de Janeiro,694055
Isabella Jacobson,1-584-778-9356,nisi@yahoo.ca,9694 Urna. Ave,Costa Rica,Pondicherry,3123
Nicole David,(632) 131-4114,pellentesque.massa@icloud.org,684-9887 Congue. St.,Peru,Saarland,6861
